[{"OBJECT_NAME":"STARLINK-31187","OBJECT_ID":"2024-012D","EPOCH":"2026-03-09T23:07:19.946784","MEAN_MOTION":15.27574505,"ECCENTRICITY":0.00015093,"INCLINATION":43.003,"RA_OF_ASC_NODE":164.066,"ARG_OF_PERICENTER":274.5972,"MEAN_ANOMALY":85.4707,"EPHEMERIS_TYPE":0,"CLASSIFICATION_TYPE":"U","NORAD_CAT_ID":58790,"ELEMENT_SET_NO":999,"REV_AT_EPOCH":12127,"BSTAR":2.1422019e-5,"MEAN_MOTION_DOT":3.27e-6,"MEAN_MOTION_DDOT":0},{"OBJECT_NAME":"CZ-4C R\/B","OBJECT_ID":"2024-089B","EPOCH":"2026-03-09T16:45:24.409152","MEAN_MOTION":15.30115456,"ECCENTRICITY":0.00763424,"INCLINATION":97.7122,"RA_OF_ASC_NODE":107.3872,"ARG_OF_PERICENTER":235.0262,"MEAN_ANOMALY":124.3793,"EPHEMERIS_TYPE":0,"CLASSIFICATION_TYPE":"U","NORAD_CAT_ID":59729,"ELEMENT_SET_NO":999,"REV_AT_EPOCH":10143,"BSTAR":0.00030010198,"MEAN_MOTION_DOT":9.476e-5,"MEAN_MOTION_DDOT":0}]
